{
  "type": "FeatureCollection",
  "features": [
    {
      "type": "Feature",
      "properties": {
        "norad_id": 42939,
        "name": "COSMOS 2522 (752)",
        "group": "gnss",
        "lat": -20.455490773801216,
        "lon": 29.03464383503135,
        "alt_km": 19117.576641503816,
        "timestamp": "2025-12-02T07:10:09.357172+00:00",
        "meta_object_name": "COSMOS 2522 (752)",
        "meta_object_id": "2017-055A",
        "meta_epoch": "2025-12-01T13:33:34.905312",
        "meta_mean_motion": 2.13101875,
        "meta_eccentricity": 0.0006558,
        "meta_inclination": 64.0757,
        "meta_ra_of_asc_node": 198.6097,
        "meta_arg_of_pericenter": 226.2705,
        "meta_mean_anomaly": 133.7684,
        "meta_ephemeris_type": 0,
        "meta_classification_type": "U",
        "meta_norad_cat_id": 42939,
        "meta_element_set_no": 999,
        "meta_rev_at_epoch": 6376,
        "meta_bstar": 0,
        "meta_mean_motion_dot": 1.03e-06,
        "meta_mean_motion_ddot": 0,
        "tle_line1": "1 42939U 17055A   25335.56498733  .00000103  00000+0  00000+0 0  9990",
        "tle_line2": "2 42939  64.0757 198.6097 0006558 226.2705 133.7684  2.13101875 63768"
      },
      "geometry": {
        "type": "Point",
        "coordinates": [
          29.03464383503135,
          -20.455490773801216
        ]
      }
    },
    {
      "type": "Feature",
      "properties": {
        "norad_id": 42965,
        "name": "QZS-4 (QZSS/PRN 195)",
        "group": "gnss",
        "lat": -14.063447927316792,
        "lon": -31.224519096601597,
        "alt_km": 34340.95024078107,
        "timestamp": "2025-12-02T07:10:09.357190+00:00",
        "meta_object_name": "QZS-4 (QZSS/PRN 195)",
        "meta_object_id": "2017-062A",
        "meta_epoch": "2025-11-30T08:44:38.860224",
        "meta_mean_motion": 1.00255929,
        "meta_eccentricity": 0.07523208,
        "meta_inclination": 40.233,
        "meta_ra_of_asc_node": 346.0314,
        "meta_arg_of_pericenter": 271.1913,
        "meta_mean_anomaly": 80.7722,
        "meta_ephemeris_type": 0,
        "meta_classification_type": "U",
        "meta_norad_cat_id": 42965,
        "meta_element_set_no": 999,
        "meta_rev_at_epoch": 2981,
        "meta_bstar": 0,
        "meta_mean_motion_dot": -3.04e-06,
        "meta_mean_motion_ddot": 0,
        "tle_line1": "1 42965U 17062A   25334.36433866 -.00000304  00000+0  00000+0 0  9994",
        "tle_line2": "2 42965  40.2330 346.0314 0752320 271.1913  80.7722  1.00255929 29813"
      },
      "geometry": {
        "type": "Point",
        "coordinates": [
          -31.224519096601597,
          -14.063447927316792
        ]
      }
    },
    {
      "type": "Feature",
      "properties": {
        "norad_id": 43001,
        "name": "BEIDOU-3 M1 (C19)",
        "group": "gnss",
        "lat": 22.29332203827163,
        "lon": -126.14411013291343,
        "alt_km": 21546.55043189046,
        "timestamp": "2025-12-02T07:10:09.357215+00:00",
        "meta_object_name": "BEIDOU-3 M1 (C19)",
        "meta_object_id": "2017-069A",
        "meta_epoch": "2025-11-30T11:01:49.166976",
        "meta_mean_motion": 1.86230859,
        "meta_eccentricity": 0.00086901,
        "meta_inclination": 56.5161,
        "meta_ra_of_asc_node": 69.6405,
        "meta_arg_of_pericenter": 303.5198,
        "meta_mean_anomaly": 56.4027,
        "meta_ephemeris_type": 0,
        "meta_classification_type": "U",
        "meta_norad_cat_id": 43001,
        "meta_element_set_no": 999,
        "meta_rev_at_epoch": 5490,
        "meta_bstar": 0,
        "meta_mean_motion_dot": -3.3e-07,
        "meta_mean_motion_ddot": 0,
        "tle_line1": "1 43001U 17069A   25334.45959684 -.00000033  00000+0  00000+0 0  9993",
        "tle_line2": "2 43001  56.5161  69.6405 0008690 303.5198  56.4027  1.86230859 54900"
      },
      "geometry": {
        "type": "Point",
        "coordinates": [
          -126.14411013291343,
          22.29332203827163
        ]
      }
    },
    {
      "type": "Feature",
      "properties": {
        "norad_id": 43002,
        "name": "BEIDOU-3 M2 (C20)",
        "group": "gnss",
        "lat": -11.925848450118652,
        "lon": -102.36219391587856,
        "alt_km": 21542.725789240012,
        "timestamp": "2025-12-02T07:10:09.357232+00:00",
        "meta_object_name": "BEIDOU-3 M2 (C20)",
        "meta_object_id": "2017-069B",
        "meta_epoch": "2025-11-30T22:26:15.226080",
        "meta_mean_motion": 1.86230641,
        "meta_eccentricity": 0.000614,
        "meta_inclination": 56.5161,
        "meta_ra_of_asc_node": 69.6603,
        "meta_arg_of_pericenter": 332.5707,
        "meta_mean_anomaly": 27.401,
        "meta_ephemeris_type": 0,
        "meta_classification_type": "U",
        "meta_norad_cat_id": 43002,
        "meta_element_set_no": 999,
        "meta_rev_at_epoch": 5490,
        "meta_bstar": 0,
        "meta_mean_motion_dot": -3.7e-07,
        "meta_mean_motion_ddot": 0,
        "tle_line1": "1 43002U 17069B   25334.93489845 -.00000037  00000+0  00000+0 0  9998",
        "tle_line2": "2 43002  56.5161  69.6603 0006140 332.5707  27.4010  1.86230641 54906"
      },
      "geometry": {
        "type": "Point",
        "coordinates": [
          -102.36219391587856,
          -11.925848450118652
        ]
      }
    },
    {
      "type": "Feature",
      "properties": {
        "norad_id": 43055,
        "name": "GSAT0215 (GALILEO 19)",
        "group": "gnss",
        "lat": -38.87223870910702,
        "lon": 81.0613486195508,
        "alt_km": 23226.133971529838,
        "timestamp": "2025-12-02T07:10:09.357253+00:00",
        "meta_object_name": "GSAT0215 (GALILEO 19)",
        "meta_object_id": "2017-079A",
        "meta_epoch": "2025-11-29T13:52:03.216864",
        "meta_mean_motion": 1.70473718,
        "meta_eccentricity": 0.0001588,
        "meta_inclination": 55.1353,
        "meta_ra_of_asc_node": 227.0004,
        "meta_arg_of_pericenter": 310.5234,
        "meta_mean_anomaly": 49.536,
        "meta_ephemeris_type": 0,
        "meta_classification_type": "U",
        "meta_norad_cat_id": 43055,
        "meta_element_set_no": 999,
        "meta_rev_at_epoch": 4958,
        "meta_bstar": 0,
        "meta_mean_motion_dot": 2.7e-07,
        "meta_mean_motion_ddot": 0,
        "tle_line1": "1 43055U 17079A   25333.57781501  .00000027  00000+0  00000+0 0  9998",
        "tle_line2": "2 43055  55.1353 227.0004 0001588 310.5234  49.5360  1.70473718 49587"
      },
      "geometry": {
        "type": "Point",
        "coordinates": [
          81.0613486195508,
          -38.87223870910702
        ]
      }
    },
    {
      "type": "Feature",
      "properties": {
        "norad_id": 43056,
        "name": "GSAT0216 (GALILEO 20)",
        "group": "gnss",
        "lat": 39.70151854873223,
        "lon": -97.76572630142421,
        "alt_km": 23218.56473720969,
        "timestamp": "2025-12-02T07:10:09.357271+00:00",
        "meta_object_name": "GSAT0216 (GALILEO 20)",
        "meta_object_id": "2017-079B",
        "meta_epoch": "2025-12-01T01:00:54.249120",
        "meta_mean_motion": 1.70473856,
        "meta_eccentricity": 0.00027137,
        "meta_inclination": 55.1346,
        "meta_ra_of_asc_node": 226.9601,
        "meta_arg_of_pericenter": 312.5245,
        "meta_mean_anomaly": 47.5297,
        "meta_ephemeris_type": 0,
        "meta_classification_type": "U",
        "meta_norad_cat_id": 43056,
        "meta_element_set_no": 999,
        "meta_rev_at_epoch": 4962,
        "meta_bstar": 0,
        "meta_mean_motion_dot": 3.1e-07,
        "meta_mean_motion_ddot": 0,
        "tle_line1": "1 43056U 17079B   25335.04229455  .00000031  00000+0  00000+0 0  9993",
        "tle_line2": "2 43056  55.1346 226.9601 0002713 312.5245  47.5297  1.70473856 49621"
      },
      "geometry": {
        "type": "Point",
        "coordinates": [
          -97.76572630142421,
          39.70151854873223
        ]
      }
    },
    {
      "type": "Feature",
      "properties": {
        "norad_id": 43057,
        "name": "GSAT0217 (GALILEO 21)",
        "group": "gnss",
        "lat": -54.76189076413914,
        "lon": 146.68327119114426,
        "alt_km": 23224.68002104782,
        "timestamp": "2025-12-02T07:10:09.357351+00:00",
        "meta_object_name": "GSAT0217 (GALILEO 21)",
        "meta_object_id": "2017-079C",
        "meta_epoch": "2025-11-29T12:04:41.145600",
        "meta_mean_motion": 1.70473704,
        "meta_eccentricity": 0.00027563,
        "meta_inclination": 55.1326,
        "meta_ra_of_asc_node": 227.0006,
        "meta_arg_of_pericenter": 340.6935,
        "meta_mean_anomaly": 19.3693,
        "meta_ephemeris_type": 0,
        "meta_classification_type": "U",
        "meta_norad_cat_id": 43057,
        "meta_element_set_no": 999,
        "meta_rev_at_epoch": 4958,
        "meta_bstar": 0,
        "meta_mean_motion_dot": 2.7e-07,
        "meta_mean_motion_ddot": 0,
        "tle_line1": "1 43057U 17079C   25333.50325400  .00000027  00000+0  00000+0 0  9995",
        "tle_line2": "2 43057  55.1326 227.0006 0002756 340.6935  19.3693  1.70473704 49580"
      },
      "geometry": {
        "type": "Point",
        "coordinates": [
          146.68327119114426,
          -54.76189076413914
        ]
      }
    }
  ]
}